[
    {
        "Altitude(m)": 569876.3320145747,
        "Argument of Periapsis(deg)": 0.019868973332140504,
        "Eccentricity": 0.0,
        "Inclination(deg)": 53.0,
        "Latitude(deg)": -48.15956191100124,
        "Longitude(deg)": 124.44566194068148,
        "Mean Anomaly(deg)": -111.54332139726716,
        "RAAN(deg)": 349.97043010558406,
        "Satellite Name": "Starlink Shell 1 1553",
        "Satellite Number": 1553,
        "Semi-Major Axis(m)": 6931778.249405717,
        "Time(s)": 570
    },
    {
        "Altitude(m)": 569985.2490325213,
        "Argument of Periapsis(deg)": 0.02021755181165174,
        "Eccentricity": 0.0,
        "Inclination(deg)": 53.0,
        "Latitude(deg)": -48.4298200825222,
        "Longitude(deg)": 125.24923037930914,
        "Mean Anomaly(deg)": -110.91649019371047,
        "RAAN(deg)": 349.9699113355066,
        "Satellite Name": "Starlink Shell 1 1553",
        "Satellite Number": 1553,
        "Semi-Major Axis(m)": 6931778.249405717,
        "Time(s)": 580
    },
    {
        "Altitude(m)": 570091.4255959934,
        "Argument of Periapsis(deg)": 0.020566130291162974,
        "Eccentricity": 0.0,
        "Inclination(deg)": 53.0,
        "Latitude(deg)": -48.69379617833841,
        "Longitude(deg)": 126.06168208601973,
        "Mean Anomaly(deg)": -110.28965899015382,
        "RAAN(deg)": 349.96939256542913,
        "Satellite Name": "Starlink Shell 1 1553",
        "Satellite Number": 1553,
        "Semi-Major Axis(m)": 6931778.249405717,
        "Time(s)": 590
    },
    {
        "Altitude(m)": 570194.8195727351,
        "Argument of Periapsis(deg)": 0.020914708770674213,
        "Eccentricity": 0.0,
        "Inclination(deg)": 53.0,
        "Latitude(deg)": -48.95136710967576,
        "Longitude(deg)": 126.88297867460378,
        "Mean Anomaly(deg)": -109.66282778659708,
        "RAAN(deg)": 349.96887379535167,
        "Satellite Name": "Starlink Shell 1 1553",
        "Satellite Number": 1553,
        "Semi-Major Axis(m)": 6931778.249405717,
        "Time(s)": 600
    },
    {
        "Altitude(m)": 570295.3899167484,
        "Argument of Periapsis(deg)": 0.021263287250185448,
        "Eccentricity": 0.0,
        "Inclination(deg)": 53.0,
        "Latitude(deg)": -49.20240974371158,
        "Longitude(deg)": 127.71306916189397,
        "Mean Anomaly(deg)": -109.03599658304039,
        "RAAN(deg)": 349.96835502527415,
        "Satellite Name": "Starlink Shell 1 1553",
        "Satellite Number": 1553,
        "Semi-Major Axis(m)": 6931778.249405717,
        "Time(s)": 610
    },
    {
        "Altitude(m)": 570393.0966861832,
        "Argument of Periapsis(deg)": 0.021611865729696686,
        "Eccentricity": 0.0,
        "Inclination(deg)": 53.0,
        "Latitude(deg)": -49.446801095938866,
        "Longitude(deg)": 128.5518899672733,
        "Mean Anomaly(deg)": -108.40916537948368,
        "RAAN(deg)": 349.9678362551967,
        "Satellite Name": "Starlink Shell 1 1553",
        "Satellite Number": 1553,
        "Semi-Major Axis(m)": 6931778.249405717,
        "Time(s)": 620
    },
    {
        "Altitude(m)": 570487.9010607493,
        "Argument of Periapsis(deg)": 0.02196044420920792,
        "Eccentricity": 0.0,
        "Inclination(deg)": 53.0,
        "Latitude(deg)": -49.68441853327987,
        "Longitude(deg)": 129.3993632521938,
        "Mean Anomaly(deg)": -107.78233417592699,
        "RAAN(deg)": 349.9673174851192,
        "Satellite Name": "Starlink Shell 1 1553",
        "Satellite Number": 1553,
        "Semi-Major Axis(m)": 6931778.249405717,
        "Time(s)": 630
    },
    {
        "Altitude(m)": 570579.7653586435,
        "Argument of Periapsis(deg)": 0.02230902268871916,
        "Eccentricity": 0.0,
        "Inclination(deg)": 53.0,
        "Latitude(deg)": -49.915139987697444,
        "Longitude(deg)": 130.25539780674134,
        "Mean Anomaly(deg)": -107.15550297237019,
        "RAAN(deg)": 349.96679871504176,
        "Satellite Name": "Starlink Shell 1 1553",
        "Satellite Number": 1553,
        "Semi-Major Axis(m)": 6931778.249405717,
        "Time(s)": 640
    },
    {
        "Altitude(m)": 570668.653052962,
        "Argument of Periapsis(deg)": 0.022657601168230398,
        "Eccentricity": 0.0,
        "Inclination(deg)": 53.0,
        "Latitude(deg)": -50.13884417994402,
        "Longitude(deg)": 131.11988744513656,
        "Mean Anomaly(deg)": -106.5286717688135,
        "RAAN(deg)": 349.9662799449643,
        "Satellite Name": "Starlink Shell 1 1553",
        "Satellite Number": 1553,
        "Semi-Major Axis(m)": 6931778.249405717,
        "Time(s)": 650
    },
    {
        "Altitude(m)": 570754.528787582,
        "Argument of Periapsis(deg)": 0.023006179647741636,
        "Eccentricity": 0.0,
        "Inclination(deg)": 53.0,
        "Latitude(deg)": -50.35541085299477,
        "Longitude(deg)": 131.99271111753936,
        "Mean Anomaly(deg)": -105.90184056525682,
        "RAAN(deg)": 349.9657611748868,
        "Satellite Name": "Starlink Shell 1 1553",
        "Satellite Number": 1553,
        "Semi-Major Axis(m)": 6931778.249405717,
        "Time(s)": 660
    },
    {
        "Altitude(m)": 570837.3583925697,
        "Argument of Periapsis(deg)": 0.023354758127252868,
        "Eccentricity": 0.0,
        "Inclination(deg)": 53.0,
        "Latitude(deg)": -50.5647210145976,
        "Longitude(deg)": 132.8737330622308,
        "Mean Anomaly(deg)": -105.27500936170007,
        "RAAN(deg)": 349.9652424048093,
        "Satellite Name": "Starlink Shell 1 1553",
        "Satellite Number": 1553,
        "Semi-Major Axis(m)": 6931778.249405717,
        "Time(s)": 670
    },
    {
        "Altitude(m)": 570917.1088990292,
        "Argument of Periapsis(deg)": 0.023703336606764106,
        "Eccentricity": 0.0,
        "Inclination(deg)": 53.0,
        "Latitude(deg)": -50.76665718826041,
        "Longitude(deg)": 133.76280149039746,
        "Mean Anomaly(deg)": -104.64817815814331,
        "RAAN(deg)": 349.9647236347319,
        "Satellite Name": "Starlink Shell 1 1553",
        "Satellite Number": 1553,
        "Semi-Major Axis(m)": 6931778.249405717,
        "Time(s)": 680
    },
    {
        "Altitude(m)": 570993.7485534418,
        "Argument of Periapsis(deg)": 0.024051915086275345,
        "Eccentricity": 0.0,
        "Inclination(deg)": 53.0,
        "Latitude(deg)": -50.96110367188665,
        "Longitude(deg)": 134.65974883434825,
        "Mean Anomaly(deg)": -104.0213469545866,
        "RAAN(deg)": 349.9642048646544,
        "Satellite Name": "Starlink Shell 1 1553",
        "Satellite Number": 1553,
        "Semi-Major Axis(m)": 6931778.249405717,
        "Time(s)": 690
    },
    {
        "Altitude(m)": 571067.246831461,
        "Argument of Periapsis(deg)": 0.024400493565786583,
        "Eccentricity": 0.0,
        "Inclination(deg)": 53.0,
        "Latitude(deg)": -51.14794680314955,
        "Longitude(deg)": 135.5643920513101,
        "Mean Anomaly(deg)": -103.39451575102999,
        "RAAN(deg)": 349.96368609457693,
        "Satellite Name": "Starlink Shell 1 1553",
        "Satellite Number": 1553,
        "Semi-Major Axis(m)": 6931778.249405717,
        "Time(s)": 700
    },
    {
        "Altitude(m)": 571137.5744511773,
        "Argument of Periapsis(deg)": 0.024749072045297815,
        "Eccentricity": 0.0,
        "Inclination(deg)": 53.0,
        "Latitude(deg)": -51.32707523057883,
        "Longitude(deg)": 136.47653147480762,
        "Mean Anomaly(deg)": -102.76768454747324,
        "RAAN(deg)": 349.96316732449947,
        "Satellite Name": "Starlink Shell 1 1553",
        "Satellite Number": 1553,
        "Semi-Major Axis(m)": 6931778.249405717,
        "Time(s)": 710
    },
    {
        "Altitude(m)": 571204.7033858257,
        "Argument of Periapsis(deg)": 0.025097650524809053,
        "Eccentricity": 0.0,
        "Inclination(deg)": 53.0,
        "Latitude(deg)": -51.498380189225266,
        "Longitude(deg)": 137.39595124403593,
        "Mean Anomaly(deg)": -102.14085334391649,
        "RAAN(deg)": 349.962648554422,
        "Satellite Name": "Starlink Shell 1 1553",
        "Satellite Number": 1553,
        "Semi-Major Axis(m)": 6931778.249405717,
        "Time(s)": 720
    },
    {
        "Altitude(m)": 571268.6068759536,
        "Argument of Periapsis(deg)": 0.02544622900432029,
        "Eccentricity": 0.0,
        "Inclination(deg)": 53.0,
        "Latitude(deg)": -51.66175577965253,
        "Longitude(deg)": 138.3224198027285,
        "Mean Anomaly(deg)": -101.51402214035977,
        "RAAN(deg)": 349.9621297843445,
        "Satellite Name": "Starlink Shell 1 1553",
        "Satellite Number": 1553,
        "Semi-Major Axis(m)": 6931778.249405717,
        "Time(s)": 730
    },
    {
        "Altitude(m)": 571329.2594410452,
        "Argument of Periapsis(deg)": 0.02579480748383153,
        "Eccentricity": 0.0,
        "Inclination(deg)": 53.0,
        "Latitude(deg)": -51.81709924890051,
        "Longitude(deg)": 139.25568895866138,
        "Mean Anomaly(deg)": -100.88719093680315,
        "RAAN(deg)": 349.961611014267,
        "Satellite Name": "Starlink Shell 1 1553",
        "Satellite Number": 1553,
        "Semi-Major Axis(m)": 6931778.249405717,
        "Time(s)": 740
    },
    {
        "Altitude(m)": 571386.6368905597,
        "Argument of Periapsis(deg)": 0.026143385963342765,
        "Eccentricity": 0.0,
        "Inclination(deg)": 53.0,
        "Latitude(deg)": -51.96431127197176,
        "Longitude(deg)": 140.19549453308994,
        "Mean Anomaly(deg)": -100.26035973324628,
        "RAAN(deg)": 349.96109224418956,
        "Satellite Name": "Starlink Shell 1 1553",
        "Satellite Number": 1553,
        "Semi-Major Axis(m)": 6931778.249405717,
        "Time(s)": 750
    }
]